EPOCH,NORAD_CAT_ID,MEAN_MOTION,ECCENTRICITY,INCLINATION,RA_OF_ASC_NODE,ARG_OF_PERICENTER,MEAN_ANOMALY,MEAN_MOTION_DOT,BSTAR,TLE_LINE1,TLE_LINE2
2023-05-30 23:35:36.810816,50803,15.08853776,0.00011930,53.2172,39.8242,84.6239,275.4890,0.00003917,0.00026393000000,1 50803U 22001A   23150.98306494  .00003917  00000-0  26393-3 0  9991,2 50803  53.2172  39.8242 0001193  84.6239 275.4890 15.08853776 78642
2023-05-31 02:46:22.924704,50803,15.08857322,0.00011800,53.2173,39.2292,84.1173,275.9954,0.00004836,0.00032157000000,1 50803U 22001A   23151.11554311  .00004836  00000-0  32157-3 0  9996,2 50803  53.2173  39.2292 0001180  84.1173 275.9954 15.08857322 77398
2023-05-31 21:51:01.134720,50803,15.08844001,0.00012200,53.2173,35.6608,91.8051,268.3081,0.00002150,0.00015314000000,1 50803U 22001A   23151.91042980  .00002150  00000-0  15314-3 0  9991,2 50803  53.2173  35.6608 0001220  91.8051 268.3081 15.08844001 77515
2023-06-01 02:37:10.215264,50803,15.08853744,0.00011400,53.2171,34.7693,90.2910,269.8213,0.00005261,0.00034828000000,1 50803U 22001A   23152.10914601  .00005261  00000-0  34828-3 0  9998,2 50803  53.2171  34.7693 0001140  90.2910 269.8213 15.08853744 77545
2023-06-01 02:37:10.215264,50803,15.08853744,0.00011400,53.2171,34.7693,90.2910,269.8213,0.00005261,0.00034828000000,1 50803U 22001A   23152.10914601  .00005261  00000-0  34828-3 0  9998,2 50803  53.2171  34.7693 0001140  90.2910 269.8213 15.08853744 78816
2023-06-02 00:52:34.450176,50803,15.08840367,0.00011770,53.2170,30.6060,94.1013,266.0113,-0.00000425,-0.00000863910000,1 50803U 22001A   23153.03650984 -.00000425  00000-0 -86391-5 0  9995,2 50803  53.2170  30.6060 0001177  94.1013 266.0113 15.08840367 77684
2023-06-02 00:52:34.450176,50803,15.08840367,0.00011770,53.2170,30.6060,94.1013,266.0113,-0.00000425,-0.00000863910000,1 50803U 22001A   23153.03650984 -.00000425  00000-0 -86391-5 0  9995,2 50803  53.2170  30.6060 0001177  94.1013 266.0113 15.08840367 78955
2023-06-02 21:32:35.638944,50803,15.08836965,0.00011760,53.2173,26.7387,92.6647,267.4479,0.00000565,0.00005358700000,1 50803U 22001A   23153.89763471  .00000565  00000-0  53587-4 0  9998,2 50803  53.2173  26.7387 0001176  92.6647 267.4479 15.08836965 77814
2023-06-03 00:43:21.785664,50803,15.08841381,0.00011690,53.2168,26.1453,104.6412,255.4710,0.00000989,0.00008020600000,1 50803U 22001A   23154.03011326  .00000989  00000-0  80206-4 0  9998,2 50803  53.2168  26.1453 0001169 104.6412 255.4710 15.08841381 77837
2023-06-03 21:23:22.907040,50803,15.08839149,0.00012210,53.2173,22.2781,104.8527,255.2600,0.00002492,0.00017462000000,1 50803U 22001A   23154.89123735  .00002492  00000-0  17462-3 0  9994,2 50803  53.2173  22.2781 0001221 104.8527 255.2600 15.08839149 77961
2023-06-04 00:34:09.083136,50803,15.08841959,0.00012340,53.2174,21.6828,105.1374,254.9754,0.00003071,0.00021097000000,1 50803U 22001A   23155.02371624  .00003071  00000-0  21097-3 0  9995,2 50803  53.2174  21.6828 0001234 105.1374 254.9754 15.08841959 79257
2023-06-04 00:34:09.083136,50803,15.08841959,0.00012340,53.2174,21.6828,105.1374,254.9754,0.00003071,0.00021097000000,1 50803U 22001A   23155.02371624  .00003071  00000-0  21097-3 0  9995,2 50803  53.2174  21.6828 0001234 105.1374 254.9754 15.08841959 77985
2023-06-04 19:38:46.931136,50803,15.08840463,0.00011900,53.2174,18.1142,103.6156,256.4968,0.00001383,0.00010493000000,1 50803U 22001A   23155.81859874  .00001383  00000-0  10493-3 0  9992,2 50803  53.2174  18.1142 0001190 103.6156 256.4968 15.08840463 79375
2023-06-04 21:14:09.992832,50803,15.08842194,0.00012110,53.2168,17.8175,107.8928,252.2196,0.00001808,0.00013162000000,1 50803U 22001A   23155.88483788  .00001808  00000-0  13162-3 0  9994,2 50803  53.2168  17.8175 0001211 107.8928 252.2196 15.08842194 78118
2023-06-05 09:57:15.146496,50803,15.08841496,0.00011370,53.2166,15.4399,92.2892,267.8230,0.00001598,0.00011844000000,1 50803U 22001A   23156.41475864  .00001598  00000-0  11844-3 0  9991,2 50803  53.2166  15.4399 0001137  92.2892 267.8230 15.08841496 78195
2023-06-05 21:04:56.778816,50803,15.08848955,0.00010850,53.2166,13.3585,87.8551,272.2566,0.00001394,0.00010562000000,1 50803U 22001A   23156.87843494  .00001394  00000-0  10562-3 0  9999,2 50803  53.2166  13.3585 0001085  87.8551 272.2566 15.08848955 78260
2023-06-06 00:15:43.423200,50803,15.08839995,0.00011990,53.2167,12.7628,94.9247,265.1882,0.00006816,0.00044594000000,1 50803U 22001A   23157.01091925  .00006816  00000-0  44594-3 0  9996,2 50803  53.2167  12.7628 0001199  94.9247 265.1882 15.08839995 79558
2023-06-06 09:48:01.978272,50803,15.08840736,0.00012930,53.2163,10.9773,127.7745,232.3364,0.00001218,0.00009457700000,1 50803U 22001A   23157.40835623  .00001218  00000-0  94577-4 0  9998,2 50803  53.2163  10.9773 0001293 127.7745 232.3364 15.08840736 78340
2023-06-06 19:20:20.887584,50803,15.08842267,0.00011170,53.2175,9.1946,102.6334,257.4783,0.00000217,0.00003169000000,1 50803U 22001A   23157.80579731  .00000217  00000-0  31690-4 0  9992,2 50803  53.2175   9.1946 0001117 102.6334 257.4783 15.08842267 78407
2023-06-07 09:38:49.545312,50803,15.08835435,0.00010600,53.2174,6.5201,95.9321,264.1792,-0.00000050,0.00001496900000,1 50803U 22001A   23158.40196233 -.00000050  00000-0  14969-4 0  9997,2 50803  53.2174   6.5201 0001060  95.9321 264.1792 15.08835435 78491
2023-06-07 09:38:49.545312,50803,15.08835435,0.00010600,53.2174,6.5201,95.9321,264.1792,-0.00000050,0.00001496900000,1 50803U 22001A   23158.40196233 -.00000050  00000-0  14969-4 0  9997,2 50803  53.2174   6.5201 0001060  95.9321 264.1792 15.08835435 79762
2023-06-07 20:46:31.255392,50803,15.08839842,0.00010720,53.2174,4.4391,91.4792,268.6323,0.00000699,0.00006198900000,1 50803U 22001A   23158.86563953  .00000699  00000-0  61989-4 0  9996,2 50803  53.2174   4.4391 0001072  91.4792 268.6323 15.08839842 79838
2023-06-07 20:46:31.255392,50803,15.08839842,0.00010720,53.2174,4.4391,91.4792,268.6323,0.00000699,0.00006198900000,1 50803U 22001A   23158.86563953  .00000699  00000-0  61989-4 0  9996,2 50803  53.2174   4.4391 0001072  91.4792 268.6323 15.08839842 78567
2023-06-08 23:48:03.974688,50803,15.08849154,0.00011050,53.2171,359.3840,97.9850,262.1268,0.00002050,0.00014684000000,1 50803U 22001A   23159.99171267  .00002050  00000-0  14684-3 0  9996,2 50803  53.2171 359.3840 0001105  97.9850 262.1268 15.08849154 80004
2023-06-09 06:09:36.839232,50803,15.08845860,0.00010780,53.2169,358.1946,97.4091,262.7024,0.00000576,0.00005426700000,1 50803U 22001A   23160.25667638  .00000576  00000-0  54267-4 0  9992,2 50803  53.2169 358.1946 0001078  97.4091 262.7024 15.08845860 78773
2023-06-09 06:09:36.839232,50803,15.08845860,0.00010780,53.2169,358.1946,97.4091,262.7024,0.00000576,0.00005426700000,1 50803U 22001A   23160.25667638  .00000576  00000-0  54267-4 0  9992,2 50803  53.2169 358.1946 0001078  97.4091 262.7024 15.08845860 80046
2023-06-09 15:41:56.064768,50803,15.08835933,0.00010990,53.2166,356.4108,92.5795,267.5323,0.00000009,0.00001862700000,1 50803U 22001A   23160.65412112  .00000009  00000-0  18627-4 0  9992,2 50803  53.2166 356.4108 0001099  92.5795 267.5323 15.08835933 78833
2023-06-09 15:41:56.064768,50803,15.08835933,0.00010990,53.2166,356.4108,92.5795,267.5323,0.00000009,0.00001862700000,1 50803U 22001A   23160.65412112  .00000009  00000-0  18627-4 0  9992,2 50803  53.2166 356.4108 0001099  92.5795 267.5323 15.08835933 80106
2023-06-10 06:00:24.124608,50803,15.08839911,0.00011450,53.2165,353.7338,94.4020,265.7103,0.00000359,0.00004065600000,1 50803U 22001A   23161.25027922  .00000359  00000-0  40656-4 0  9995,2 50803  53.2165 353.7338 0001145  94.4020 265.7103 15.08839911 78927
2023-06-10 18:43:29.595360,50803,15.08842297,0.00011630,53.2173,351.3542,90.7744,269.3381,-0.00000449,-0.00001013800000,1 50803U 22001A   23161.78020365 -.00000449  00000-0 -10138-4 0  9991,2 50803  53.2173 351.3542 0001163  90.7744 269.3381 15.08842297 80279
2023-06-11 12:12:44.320320,50803,15.08836379,0.00012220,53.2173,348.0817,93.6406,266.4726,0.00000611,0.00005646400000,1 50803U 22001A   23162.50884630  .00000611  00000-0  56464-4 0  9996,2 50803  53.2173 348.0817 0001222  93.6406 266.4726 15.08836379 79116
2023-06-11 21:45:02.797632,50803,15.08842448,0.00012320,53.2165,346.2979,103.1428,256.9701,0.00000714,0.00006293100000,1 50803U 22001A   23162.90628238  .00000714  00000-0  62931-4 0  9990,2 50803  53.2165 346.2979 0001232 103.1428 256.9701 15.08842448 80447
2023-06-11 21:45:02.797632,50803,15.08842448,0.00012320,53.2165,346.2979,103.1428,256.9701,0.00000714,0.00006293100000,1 50803U 22001A   23162.90628238  .00000714  00000-0  62931-4 0  9990,2 50803  53.2165 346.2979 0001232 103.1428 256.9701 15.08842448 79175
2023-06-12 05:41:58.633152,50803,15.08836954,0.00012100,53.2167,344.8111,95.3325,264.7805,0.00002461,0.00017267000000,1 50803U 22001A   23163.23748418  .00002461  00000-0  17267-3 0  9992,2 50803  53.2167 344.8111 0001210  95.3325 264.7805 15.08836954 79226
2023-06-12 21:35:49.700256,50803,15.08846293,0.00012340,53.2167,341.8379,89.6094,270.5039,0.00000863,0.00007228200000,1 50803U 22001A   23163.89988079  .00000863  00000-0  72282-4 0  9996,2 50803  53.2167 341.8379 0001234  89.6094 270.5039 15.08846293 79326
2023-06-13 11:54:18.413280,50803,15.08833193,0.00010480,53.2176,339.1588,106.0377,254.0731,0.00001867,0.00013536000000,1 50803U 22001A   23164.49604645  .00001867  00000-0  13536-3 0  9998,2 50803  53.2176 339.1588 0001048 106.0377 254.0731 15.08833193 80681
2023-06-13 18:15:50.597856,50803,15.08839063,0.00010260,53.2179,337.9696,104.3447,255.7659,0.00002364,0.00016654000000,1 50803U 22001A   23164.76100229  .00002364  00000-0  16654-3 0  9994,2 50803  53.2179 337.9696 0001026 104.3447 255.7659 15.08839063 79457
2023-06-13 18:15:50.597856,50803,15.08839063,0.00010260,53.2179,337.9696,104.3447,255.7659,0.00002364,0.00016654000000,1 50803U 22001A   23164.76100229  .00002364  00000-0  16654-3 0  9994,2 50803  53.2179 337.9696 0001026 104.3447 255.7659 15.08839063 80729
